{
  "norad_id": 40348,
  "name": "O3B FM10",
  "history": [
    {
      "epoch": "2026-03-27T09:41:53.331936",
      "apogee_km": 8069.769903258356,
      "perigee_km": 8062.010571826347,
      "latitude_deg": -0.024892252393902792,
      "longitude_deg": -42.40740896016359,
      "semi_major_axis_km": 14444.02723754235,
      "eccentricity": 0.0002686,
      "inclination_deg": 0.0455,
      "raan_deg": 334.8109,
      "arg_perigee_deg": 31.2091,
      "mean_anomaly_deg": 353.9787,
      "mean_motion_rev_day": 5.00115499
    }
  ]
}