{"fetched_at":"2026-03-29T02:12:04Z","count":15717,"tles":[{"name":"O3B FM10","line1":"1 40348U 14083A   26086.40408949 -.00000028  00000+0  00000+0 0  9994","line2":"2 40348   0.0455 334.8109 0002686  31.2091 353.9787  5.00115499205802","category":"Other"}]}